{
  "type": "FeatureCollection",
  "features": [
    {
      "type": "Feature",
      "properties": {
        "norad_id": 66517,
        "name": "STARLINK-35937",
        "group": "last-30-days",
        "lat": -26.993582290639022,
        "lon": -83.89299172212091,
        "alt_km": 416.8263847026319,
        "timestamp": "2025-12-11T05:00:25.074815+00:00",
        "meta_object_name": "STARLINK-35937",
        "meta_object_id": "2025-265B",
        "meta_epoch": "2025-12-10T22:00:03.000096",
        "meta_mean_motion": 15.5065282,
        "meta_eccentricity": 0.00017339,
        "meta_inclination": 43.0001,
        "meta_ra_of_asc_node": 64.6784,
        "meta_arg_of_pericenter": 268.2144,
        "meta_mean_anomaly": 121.9631,
        "meta_ephemeris_type": 0,
        "meta_classification_type": "U",
        "meta_norad_cat_id": 66517,
        "meta_element_set_no": 999,
        "meta_rev_at_epoch": 470,
        "meta_bstar": -0.002913052,
        "meta_mean_motion_dot": -0.00168068,
        "meta_mean_motion_ddot": 0,
        "tle_line1": "1 66517U 25265B   25344.91670139 -.00168068  00000+0 -29131-2 0  9997",
        "tle_line2": "2 66517  43.0001  64.6784 0001733 268.2144 121.9631 15.50652820  4709"
      },
      "geometry": {
        "type": "Point",
        "coordinates": [
          -83.89299172212091,
          -26.993582290639022
        ]
      }
    },
    {
      "type": "Feature",
      "properties": {
        "norad_id": 66518,
        "name": "STARLINK-35962",
        "group": "last-30-days",
        "lat": -28.066368079885333,
        "lon": -82.1318889597078,
        "alt_km": 417.05271860446464,
        "timestamp": "2025-12-11T05:00:25.074825+00:00",
        "meta_object_name": "STARLINK-35962",
        "meta_object_id": "2025-265C",
        "meta_epoch": "2025-12-10T22:00:03.000096",
        "meta_mean_motion": 15.50561539,
        "meta_eccentricity": 0.00014828,
        "meta_inclination": 43.0001,
        "meta_ra_of_asc_node": 64.6729,
        "meta_arg_of_pericenter": 274.3291,
        "meta_mean_anomaly": 117.7916,
        "meta_ephemeris_type": 0,
        "meta_classification_type": "U",
        "meta_norad_cat_id": 66518,
        "meta_element_set_no": 999,
        "meta_rev_at_epoch": 470,
        "meta_bstar": -1.8908651e-05,
        "meta_mean_motion_dot": -1.45e-05,
        "meta_mean_motion_ddot": 0,
        "tle_line1": "1 66518U 25265C   25344.91670139 -.00001450  00000+0 -18909-4 0  9992",
        "tle_line2": "2 66518  43.0001  64.6729 0001482 274.3291 117.7916 15.50561539  4706"
      },
      "geometry": {
        "type": "Point",
        "coordinates": [
          -82.1318889597078,
          -28.066368079885333
        ]
      }
    },
    {
      "type": "Feature",
      "properties": {
        "norad_id": 66519,
        "name": "STARLINK-35931",
        "group": "last-30-days",
        "lat": -29.12786858223592,
        "lon": -80.3147058852769,
        "alt_km": 416.8418508724317,
        "timestamp": "2025-12-11T05:00:25.074837+00:00",
        "meta_object_name": "STARLINK-35931",
        "meta_object_id": "2025-265D",
        "meta_epoch": "2025-12-10T22:00:03.000096",
        "meta_mean_motion": 15.50618759,
        "meta_eccentricity": 0.00019897,
        "meta_inclination": 43.0002,
        "meta_ra_of_asc_node": 64.6679,
        "meta_arg_of_pericenter": 271.1713,
        "meta_mean_anomaly": 122.8484,
        "meta_ephemeris_type": 0,
        "meta_classification_type": "U",
        "meta_norad_cat_id": 66519,
        "meta_element_set_no": 999,
        "meta_rev_at_epoch": 470,
        "meta_bstar": -0.0019052291,
        "meta_mean_motion_dot": -0.00110709,
        "meta_mean_motion_ddot": 0,
        "tle_line1": "1 66519U 25265D   25344.91670139 -.00110709  00000+0 -19052-2 0  9999",
        "tle_line2": "2 66519  43.0002  64.6679 0001989 271.1713 122.8484 15.50618759  4702"
      },
      "geometry": {
        "type": "Point",
        "coordinates": [
          -80.3147058852769,
          -29.12786858223592
        ]
      }
    },
    {
      "type": "Feature",
      "properties": {
        "norad_id": 66520,
        "name": "STARLINK-35952",
        "group": "last-30-days",
        "lat": -30.16292407684504,
        "lon": -78.46213052187773,
        "alt_km": 417.16822984355895,
        "timestamp": "2025-12-11T05:00:25.074848+00:00",
        "meta_object_name": "STARLINK-35952",
        "meta_object_id": "2025-265E",
        "meta_epoch": "2025-12-10T22:00:03.000096",
        "meta_mean_motion": 15.5062023,
        "meta_eccentricity": 0.00015259,
        "meta_inclination": 43.0002,
        "meta_ra_of_asc_node": 64.6629,
        "meta_arg_of_pericenter": 276.5841,
        "meta_mean_anomaly": 119.351,
        "meta_ephemeris_type": 0,
        "meta_classification_type": "U",
        "meta_norad_cat_id": 66520,
        "meta_element_set_no": 999,
        "meta_rev_at_epoch": 470,
        "meta_bstar": -0.0019269724,
        "meta_mean_motion_dot": -0.00111951,
        "meta_mean_motion_ddot": 0,
        "tle_line1": "1 66520U 25265E   25344.91670139 -.00111951  00000+0 -19270-2 0  9993",
        "tle_line2": "2 66520  43.0002  64.6629 0001525 276.5841 119.3510 15.50620230  4704"
      },
      "geometry": {
        "type": "Point",
        "coordinates": [
          -78.46213052187773,
          -30.16292407684504
        ]
      }
    },
    {
      "type": "Feature",
      "properties": {
        "norad_id": 66521,
        "name": "STARLINK-35915",
        "group": "last-30-days",
        "lat": -31.170275058718733,
        "lon": -76.57218599622693,
        "alt_km": 417.0791401516726,
        "timestamp": "2025-12-11T05:00:25.074858+00:00",
        "meta_object_name": "STARLINK-35915",
        "meta_object_id": "2025-265F",
        "meta_epoch": "2025-12-10T22:00:03.000096",
        "meta_mean_motion": 15.50613905,
        "meta_eccentricity": 0.00014699,
        "meta_inclination": 43.0001,
        "meta_ra_of_asc_node": 64.6581,
        "meta_arg_of_pericenter": 263.656,
        "meta_mean_anomaly": 134.1975,
        "meta_ephemeris_type": 0,
        "meta_classification_type": "U",
        "meta_norad_cat_id": 66521,
        "meta_element_set_no": 999,
        "meta_rev_at_epoch": 470,
        "meta_bstar": -0.0017798651,
        "meta_mean_motion_dot": -0.00103517,
        "meta_mean_motion_ddot": 0,
        "tle_line1": "1 66521U 25265F   25344.91670139 -.00103517  00000+0 -17799-2 0  9997",
        "tle_line2": "2 66521  43.0001  64.6581 0001469 263.6560 134.1975 15.50613905  4704"
      },
      "geometry": {
        "type": "Point",
        "coordinates": [
          -76.57218599622693,
          -31.170275058718733
        ]
      }
    },
    {
      "type": "Feature",
      "properties": {
        "norad_id": 66522,
        "name": "STARLINK-35946",
        "group": "last-30-days",
        "lat": -32.151305845177,
        "lon": -74.63831405627728,
        "alt_km": 417.0501992167301,
        "timestamp": "2025-12-11T05:00:25.074871+00:00",
        "meta_object_name": "STARLINK-35946",
        "meta_object_id": "2025-265G",
        "meta_epoch": "2025-12-10T22:00:03.000096",
        "meta_mean_motion": 15.50629451,
        "meta_eccentricity": 0.00017459,
        "meta_inclination": 43,
        "meta_ra_of_asc_node": 64.653,
        "meta_arg_of_pericenter": 270.2128,
        "meta_mean_anomaly": 129.5584,
        "meta_ephemeris_type": 0,
        "meta_classification_type": "U",
        "meta_norad_cat_id": 66522,
        "meta_element_set_no": 999,
        "meta_rev_at_epoch": 470,
        "meta_bstar": -0.0022666584,
        "meta_mean_motion_dot": -0.00131349,
        "meta_mean_motion_ddot": 0,
        "tle_line1": "1 66522U 25265G   25344.91670139 -.00131349  00000+0 -22667-2 0  9992",
        "tle_line2": "2 66522  43.0000  64.6530 0001745 270.2128 129.5584 15.50629451  4706"
      },
      "geometry": {
        "type": "Point",
        "coordinates": [
          -74.63831405627728,
          -32.151305845177
        ]
      }
    },
    {
      "type": "Feature",
      "properties": {
        "norad_id": 66523,
        "name": "STARLINK-35969",
        "group": "last-30-days",
        "lat": -33.07309534852138,
        "lon": -72.72519968057448,
        "alt_km": 416.74907423156037,
        "timestamp": "2025-12-11T05:00:25.074881+00:00",
        "meta_object_name": "STARLINK-35969",
        "meta_object_id": "2025-265H",
        "meta_epoch": "2025-12-10T22:00:03.000096",
        "meta_mean_motion": 15.50553803,
        "meta_eccentricity": 0.00030659,
        "meta_inclination": 43.0003,
        "meta_ra_of_asc_node": 64.6483,
        "meta_arg_of_pericenter": 278.8317,
        "meta_mean_anomaly": 122.8813,
        "meta_ephemeris_type": 0,
        "meta_classification_type": "U",
        "meta_norad_cat_id": 66523,
        "meta_element_set_no": 999,
        "meta_rev_at_epoch": 470,
        "meta_bstar": -0.0015554546,
        "meta_mean_motion_dot": -0.00090483,
        "meta_mean_motion_ddot": 0,
        "tle_line1": "1 66523U 25265H   25344.91670139 -.00090483  00000+0 -15555-2 0  9994",
        "tle_line2": "2 66523  43.0003  64.6483 0003065 278.8317 122.8813 15.50553803  4706"
      },
      "geometry": {
        "type": "Point",
        "coordinates": [
          -72.72519968057448,
          -33.07309534852138
        ]
      }
    }
  ]
}